FLOCK 3P-60             
1 41976U 17008AE  19118.77524201  .00001104  00000-0  46794-4 0  9991
2 41976  97.4109 186.3686 0006794 334.9495  25.1412 15.25245965121373
FLOCK 3P-58             
1 41977U 17008AF  19119.19113457  .00001444  00000-0  60277-4 0  9995
2 41977  97.4103 186.6887 0006783 332.0528  28.0345 15.25260101122263
FLOCK 3P-57             
1 41978U 17008AG  19118.72291239  .00001332  00000-0  55809-4 0  9990
2 41978  97.4104 186.2475 0006822 332.1382  27.9490 15.25261331122037
FLOCK 3P-75             
1 41979U 17008AH  19118.85312733  .00001125  00000-0  47564-4 0  9997
2 41979  97.4127 186.6236 0006993 335.5502  24.5403 15.25274056122206
FLOCK 3P-70             
1 41980U 17008AJ  19118.91830074  .00001732  00000-0  71718-4 0  9991
2 41980  97.4129 186.6993 0006914 335.1544  24.9360 15.25273857122063
FLOCK 3P-73             
1 41981U 17008AK  19119.45611445  .00002567  00000-0  10276-3 0  9999
2 41981  97.4127 187.3570 0006782 332.1257  27.9617 15.25966948122284
FLOCK 3P-88             
1 41982U 17008AL  19119.46961254  .00002178  00000-0  87484-4 0  9991
2 41982  97.4122 187.4518 0006579 330.9295  29.1576 15.26011261121260
FLOCK 3P-85             
1 41983U 17008AM  19119.19179896  .00001179  00000-0  48925-4 0  9992
2 41983  97.4128 187.2381 0006858 336.9308  23.1621 15.25834997122123
FLOCK 3P-79             
1 41984U 17008AN  19118.96713520  .00001621  00000-0  67318-4 0  9994
2 41984  97.4128 186.7833 0006849 337.8157  22.2784 15.25256111122072
FLOCK 3P-86             
1 41985U 17008AP  19119.49369629  .00001511  00000-0  62990-4 0  9990
2 41985  97.4129 187.2992 0006715 335.5156  24.5762 15.25245453122148
FLOCK 3P-36             
1 41986U 17008AQ  19119.49476566  .00001629  00000-0  67659-4 0  9997
2 41986  97.4112 187.1148 0006528 332.5440  27.5453 15.25253818121635
FLOCK 3P-30             
1 41987U 17008AR  19119.41745996  .00000971  00000-0  41448-4 0  9993
2 41987  97.4111 187.0561 0006364 335.9226  24.1714 15.25271038122098
FLOCK 3P-34             
1 41988U 17008AS  19119.23737341  .00001764  00000-0  73017-4 0  9997
2 41988  97.4107 186.7975 0006424 331.1509  28.9373 15.25248467121595
FLOCK 3P-35             
1 41989U 17008AT  19118.80904413  .00001936  00000-0  79054-4 0  9994
2 41989  97.4109 186.4469 0006189 331.9517  28.1387 15.25596954121536
FLOCK 3P-33             
1 41990U 17008AU  19118.77408770  .00001359  00000-0  56909-4 0  9990
2 41990  97.4105 186.3510 0006383 334.7363  25.3562 15.25248347121529
FLOCK 3P-49             
1 42001U 17008BF  19118.75607189  .00001304  00000-0  54643-4 0  9990
2 42001  97.4106 186.3843 0007463 353.6195   6.4946 15.25296682122045
FLOCK 3P-67             
1 42002U 17008BG  19118.86694209  .00002254  00000-0  89908-4 0  9999
2 42002  97.4098 186.8151 0006928 350.6170   9.4938 15.26211820122246
FLOCK 3P-68             
1 42003U 17008BH  19118.76519015  .00001010  00000-0  43015-4 0  9998
2 42003  97.4104 186.3389 0007477 350.8338   9.2762 15.25275376121844
FLOCK 3P-41             
1 42004U 17008BJ  19118.92180688  .00002637  00000-0  10490-3 0  9993
2 42004  97.4095 186.7333 0007134 350.6196   9.4908 15.26148510122088
FLOCK 3P-45             
1 42005U 17008BK  19118.92073611  .00002292  00000-0  91268-4 0  9991
2 42005  97.4105 186.9014 0006917 353.1905   6.9238 15.26247749122254
FLOCK 3P-48             
1 42006U 17008BL  19118.75841107  .00001778  00000-0  73554-4 0  9992
2 42006  97.4112 186.4055 0007231 355.1166   5.0000 15.25251947121984
FLOCK 3P-43             
1 42007U 17008BM  19119.17004616  .00002179  00000-0  88813-4 0  9996
2 42007  97.4114 186.7688 0006806 354.4940   5.6222 15.25522625122258
FLOCK 3P-42             
1 42008U 17008BN  19118.95035409  .00001028  00000-0  43724-4 0  9990
2 42008  97.4104 186.5388 0007265 353.8318   6.2829 15.25255782122151
FLOCK 3P-61             
1 42009U 17008BP  19118.95016601  .00001621  00000-0  67301-4 0  9990
2 42009  97.4105 186.5596 0007222 355.7496   4.3679 15.25269276122206
FLOCK 3P-40             
1 42010U 17008BQ  19118.87989593  .00001161  00000-0  49015-4 0  9993
2 42010  97.4098 186.4321 0007273 358.1910   1.9300 15.25263160121454
FLOCK 3P-16             
1 42011U 17008BR  19118.74709624  .00000849  00000-0  36774-4 0  9995
2 42011  97.4098 186.3003 0006904 358.6586   1.4632 15.25120925121370
FLOCK 3P-14             
1 42012U 17008BS  19119.48123988  .00000921  00000-0  39314-4 0  9995
2 42012  97.4115 187.2684 0006883 358.7294   1.3926 15.25400892122111
FLOCK 3P-53             
1 42013U 17008BT  19119.16384844  .00002196  00000-0  89402-4 0  9990
2 42013  97.4100 186.8011 0006693 357.7767   2.3440 15.25543871122069
FLOCK 3P-54             
1 42014U 17008BU  19118.74630239  .00001041  00000-0  44282-4 0  9991
2 42014  97.4102 186.3294 0006919   0.2811 359.8430 15.25228611122163
FLOCK 3P-23             
1 42018U 17008BY  19119.39932776  .00001087  00000-0  46098-4 0  9995
2 42018  97.4095 186.7815 0007242 327.0503  33.0283 15.25258903121061
FLOCK 3P-76             
1 42019U 17008BZ  19119.17316716  .00001659  00000-0  68864-4 0  9992
2 42019  97.4133 186.9993 0007137 335.2713  24.8181 15.25242943122097
FLOCK 3P-69             
1 42020U 17008CA  19119.43090063  .00001180  00000-0  49720-4 0  9996
2 42020  97.4130 187.2525 0006894 332.4253  27.6618 15.25312413121026
FLOCK 3P-84             
1 42021U 17008CB  19118.91576992  .00001230  00000-0  51746-4 0  9996
2 42021  97.4126 186.6749 0007223 334.7040  25.3843 15.25275210122062
FLOCK 3P-59             
1 42022U 17008CC  19118.90925986  .00002202  00000-0  88042-4 0  9996
2 42022  97.4099 186.7480 0006391 334.7861  25.3064 15.26157711121106
FLOCK 3P-32             
1 42023U 17008CD  19118.91980747  .00001193  00000-0  50280-4 0  9995
2 42023  97.4101 186.4441 0006662 331.8431  28.2446 15.25274521122225
FLOCK 3P-71             
1 42024U 17008CE  19118.87436759  .00002486  00000-0  98780-4 0  9993
2 42024  97.4104 186.8547 0006826 336.9073  23.1858 15.26243641121107
FLOCK 3P-77             
1 42025U 17008CF  19118.65000896  .00001748  00000-0  72335-4 0  9997
2 42025  97.4130 186.4459 0007040 338.3510  21.7429 15.25272300122029
FLOCK 3P-80             
1 42026U 17008CG  19118.75165332  .00001218  00000-0  51274-4 0  9997
2 42026  97.4127 186.5988 0006689 338.6286  21.4672 15.25271299120183
FLOCK 3P-66             
1 42027U 17008CH  19119.15737541  .00001084  00000-0  45937-4 0  9990
2 42027  97.4106 186.7616 0007442 349.0076  11.0998 15.25272888122219
FLOCK 3P-65             
1 42028U 17008CJ  19119.41926968  .00001541  00000-0  64094-4 0  9996
2 42028  97.4107 187.0319 0007253 348.8189  11.2886 15.25270033122158
FLOCK 3P-50             
1 42029U 17008CK  19119.15347525  .00001357  00000-0  56801-4 0  9996
2 42029  97.4112 186.8050 0007300 351.7366   8.3750 15.25264489121432
FLOCK 3P-52             
1 42030U 17008CL  19119.15376964  .00001144  00000-0  48312-4 0  9999
2 42030  97.4108 186.7663 0007277 351.6805   8.4311 15.25277587122201
FLOCK 3P-46             
1 42031U 17008CM  19119.14891591  .00001596  00000-0  66303-4 0  9998
2 42031  97.4100 186.7289 0007242 352.2451   7.8674 15.25266611122238
FLOCK 3P-47             
1 42032U 17008CN  19119.14943478  .00000992  00000-0  42287-4 0  9995
2 42032  97.4101 186.7250 0007236 353.0253   7.0883 15.25255995122080
FLOCK 3P-44             
1 42033U 17008CP  19119.16768242  .00002311  00000-0  94831-4 0  9991
2 42033  97.4106 186.6126 0007338 357.4343   2.6856 15.25224992120822
FLOCK 3P-64             
1 42034U 17008CQ  19118.81704796  .00001612  00000-0  66950-4 0  9991
2 42034  97.4101 186.3992 0007182 357.8329   2.2877 15.25267103122205
FLOCK 3P-63             
1 42035U 17008CR  19118.94663214  .00002051  00000-0  84352-4 0  9999
2 42035  97.4096 186.5072 0007245 356.9834   3.1359 15.25282044120193
FLOCK 3P-62             
1 42036U 17008CS  19118.86876443  .00002218  00000-0  88179-4 0  9997
2 42036  97.4103 186.9403 0006982 357.3242   2.7958 15.26333077121410
FLOCK 3P-38             
1 42037U 17008CT  19118.88537206  .00002043  00000-0  82707-4 0  9998
2 42037  97.4102 186.6123 0006675 358.0320   2.0891 15.25825123122170
FLOCK 3P-39             
1 42038U 17008CU  19119.20250446  .00001309  00000-0  54809-4 0  9990
2 42038  97.4093 186.7437 0007084 357.3801   2.7399 15.25312452122165
FLOCK 3P-15             
1 42039U 17008CV  19119.16825504  .00002250  00000-0  90939-4 0  9999
2 42039  97.4094 186.8194 0006857 357.2439   2.8761 15.25773787121447
FLOCK 3P-13             
1 42040U 17008CW  19119.14255478  .00002213  00000-0  89148-4 0  9995
2 42040  97.4104 186.9171 0006663 357.4981   2.6223 15.25901469121436
FLOCK 3P-55             
1 42041U 17008CX  19118.72660081  .00001134  00000-0  47934-4 0  9997
2 42041  97.4102 186.3703 0006949   3.7303 356.3985 15.25266641122202
FLOCK 3P-56             
1 42042U 17008CY  19118.87780485  .00002278  00000-0  89801-4 0  9994
2 42042  97.4094 187.1886 0006478 359.9370   0.1867 15.26603137122064
FLOCK 3P-81             
1 42043U 17008CZ  19118.76660895  .00001227  00000-0  51625-4 0  9991
2 42043  97.4129 186.5909 0007180 339.0389  21.0554 15.25288279121387
FLOCK 3P-87             
1 42044U 17008DA  19119.24285149  .00001598  00000-0  66402-4 0  9991
2 42044  97.4122 186.9719 0007102 333.1737  26.9132 15.25254049121609
FLOCK 3P-29             
1 42045U 17008DB  19119.48375939  .00002036  00000-0  82852-4 0  9990
2 42045  97.4100 187.0721 0006404 329.3382  30.7481 15.25646606121499
FLOCK 3P-82             
1 42046U 17008DC  19119.46663553  .00002096  00000-0  83826-4 0  9999
2 42046  97.4127 187.6040 0006706 332.0944  27.9934 15.26204315121566
FLOCK 3P-78             
1 42047U 17008DD  19119.48378919  .00002325  00000-0  94274-4 0  9995
2 42047  97.4127 187.2966 0006617 330.9501  29.1368 15.25632751121470
FLOCK 3P-74             
1 42048U 17008DE  19118.92295067  .00001608  00000-0  66786-4 0  9996
2 42048  97.4131 186.7065 0007337 335.4425  24.6463 15.25260473121389
